NORAD_CAT_ID,OBJECT_NAME,OBJECT_TYPE,EPOCH,MEAN_MOTION,ECCENTRICITY,INCLINATION,RA_OF_ASC_NODE,ARG_OF_PERICENTER,MEAN_ANOMALY,BSTAR,MEAN_MOTION_DOT,MEAN_MOTION_DDOT,TLE_LINE0,TLE_LINE1,TLE_LINE2,SEMIMAJOR_AXIS,PERIOD,APOGEE,PERIGEE,DECAYED
50829.0,STARLINK-3294,PAYLOAD,2023-02-27 14:56:09,15.08884859,0.0001229,53.2146,94.4496,76.9414,283.1716,0.0043709,0.00070053,0.0,0 STARLINK-3294,1 50829U 22001AC  23058.62233193  .00070053  00000-0  43709-2 0  9996,2 50829  53.2146  94.4496 0001229  76.9414 283.1716 15.08884859 64697,6917.743,95.435,540.458,538.758,0.0
50829.0,STARLINK-3294,PAYLOAD,2023-02-27 19:42:18,15.08868273,5.08e-05,53.2146,93.5582,250.6418,109.4519,0.0017276,0.00027335,0.0,0 STARLINK-3294,1 50829U 22001AC  23058.82104415  .00027335  00000-0  17276-2 0  9997,2 50829  53.2146  93.5582 0000508 250.6418 109.4519 15.08868273 63453,6917.794,95.436,540.01,539.308,0.0
50829.0,STARLINK-3294,PAYLOAD,2023-02-28 06:50:00,15.08876558,0.0001183,53.2138,91.4763,80.4907,279.6218,0.0012495,0.00019674,0.0,0 STARLINK-3294,1 50829U 22001AC  23059.28472231  .00019674  00000-0  12495-2 0  9997,2 50829  53.2138  91.4763 0001183  80.4907 279.6218 15.08876558 64793,6917.769,95.435,540.452,538.815,0.0
50829.0,STARLINK-3294,PAYLOAD,2023-02-28 08:25:23,15.08883118,0.0001338,53.2145,91.1798,83.5791,276.5353,0.0015095,0.00023846,0.0,0 STARLINK-3294,1 50829U 22001AC  23059.35096088  .00023846  00000-0  15095-2 0  9992,2 50829  53.2145  91.1798 0001338  83.5791 276.5353 15.08883118 63530,6917.749,95.435,540.539,538.688,0.0
50829.0,STARLINK-3294,PAYLOAD,2023-02-28 19:33:04,15.08833967,0.0001211,53.2151,89.0972,116.6812,243.4304,-0.00092044,-0.00014904,0.0,0 STARLINK-3294,1 50829U 22001AC  23059.81464048 -.00014904  00000-0 -92044-3 0  9995,2 50829  53.2151  89.0972 0001211 116.6812 243.4304 15.08833967 63603,6917.899,95.438,540.602,538.926,0.0
50829.0,STARLINK-3294,PAYLOAD,2023-03-01 05:05:24,15.08799451,0.0001978,53.214,87.3108,128.0687,232.0483,0.00013186,1.809e-05,0.0,0 STARLINK-3294,1 50829U 22001AC  23060.21209369  .00001809  00000-0  13186-3 0  9992,2 50829  53.2140  87.3108 0001978 128.0687 232.0483 15.08799451 64938,6918.004,95.44,541.238,538.501,0.0
50829.0,STARLINK-3294,PAYLOAD,2023-03-01 13:02:21,15.08807397,0.0001816,53.2143,85.8228,130.3011,229.814,-0.00055385,-9.084e-05,0.0,0 STARLINK-3294,1 50829U 22001AC  23060.54330110 -.00009084  00000-0 -55385-3 0  9999,2 50829  53.2143  85.8228 0001816 130.3011 229.8140 15.08807397 63713,6917.98,95.44,541.101,538.589,0.0
50829.0,STARLINK-3294,PAYLOAD,2023-03-02 12:53:09,15.08852135,0.0001298,53.2144,81.3666,112.2278,247.8852,0.0016815,0.00026583,0.0,0 STARLINK-3294,1 50829U 22001AC  23061.53691378  .00026583  00000-0  16815-2 0  9990,2 50829  53.2144  81.3666 0001298 112.2278 247.8852 15.08852135 63865,6917.843,95.437,540.606,538.81,0.0
50829.0,STARLINK-3294,PAYLOAD,2023-03-03 07:57:45,15.08888868,0.0001416,53.2147,77.7976,114.5624,245.5516,0.0018988,0.00030101,0.0,0 STARLINK-3294,1 50829U 22001AC  23062.33178001  .00030101  00000-0  18988-2 0  9996,2 50829  53.2147  77.7976 0001416 114.5624 245.5516 15.08888868 65252,6917.731,95.434,540.576,538.616,0.0
50829.0,STARLINK-3294,PAYLOAD,2023-03-03 17:30:04,15.08863365,0.0002253,53.2147,76.0133,85.1208,275.0041,0.00048539,7.45e-05,0.0,0 STARLINK-3294,1 50829U 22001AC  23062.72921952  .00007450  00000-0  48539-3 0  9997,2 50829  53.2147  76.0133 0002253  85.1208 275.0041 15.08863365 65313,6917.809,95.436,541.233,538.115,0.0
50829.0,STARLINK-3294,PAYLOAD,2023-03-04 10:59:18,15.08870915,0.000133,53.2153,72.743,92.0169,268.0976,0.0008466,0.00013223,0.0,0 STARLINK-3294,1 50829U 22001AC  23063.45784725  .00013223  00000-0  84660-3 0  9993,2 50829  53.2153  72.7430 0001330  92.0169 268.0976 15.08870915 64150,6917.786,95.436,540.571,538.731,0.0
50829.0,STARLINK-3294,PAYLOAD,2023-03-04 17:20:51,15.08851138,0.0001741,53.2145,71.5517,82.7664,277.3526,0.00056184,8.668e-05,0.0,0 STARLINK-3294,1 50829U 22001AC  23063.72281264  .00008668  00000-0  56184-3 0  9990,2 50829  53.2145  71.5517 0001741  82.7664 277.3526 15.08851138 65461,6917.846,95.437,540.916,538.507,0.0
50829.0,STARLINK-3294,PAYLOAD,2023-03-05 04:28:33,15.08833083,0.0001151,53.214,69.4707,80.0101,280.1021,0.0013281,0.00020908,0.0,0 STARLINK-3294,1 50829U 22001AC  23064.18649788  .00020908  00000-0  13281-2 0  9991,2 50829  53.2140  69.4707 0001151  80.0101 280.1021 15.08833083 65534,6917.902,95.438,540.563,538.97,0.0
50829.0,STARLINK-3294,PAYLOAD,2023-03-05 09:14:42,15.08840133,0.000133,53.2139,68.5784,72.0344,288.0793,0.0018669,0.00029549,0.0,0 STARLINK-3294,1 50829U 22001AC  23064.38521917  .00029549  00000-0  18669-2 0  9991,2 50829  53.2139  68.5784 0001330  72.0344 288.0793 15.08840133 64295,6917.88,95.438,540.665,538.825,0.0
50829.0,STARLINK-3294,PAYLOAD,2023-03-05 17:11:38,15.08845152,0.000121,53.2141,67.0914,85.6683,274.4447,0.001471,0.00023204,0.0,0 STARLINK-3294,1 50829U 22001AC  23064.71642001  .00023204  00000-0  14710-2 0  9991,2 50829  53.2141  67.0914 0001210  85.6683 274.4447 15.08845152 65618,6917.865,95.437,540.567,538.893,0.0
50829.0,STARLINK-3294,PAYLOAD,2023-03-06 17:02:25,15.08831435,0.0001001,53.2143,62.6305,77.8309,282.2795,-0.00039822,-6.618e-05,0.0,0 STARLINK-3294,1 50829U 22001AC  23065.71001724 -.00006618  00000-0 -39822-3 0  9997,2 50829  53.2143  62.6305 0001001  77.8309 282.2795 15.08831435 65769,6917.907,95.438,540.464,539.079,0.0
50829.0,STARLINK-3294,PAYLOAD,2023-03-07 05:45:30,15.08843425,7.63e-05,53.2146,60.2521,56.2822,303.8243,0.00075823,0.00011801,0.0,0 STARLINK-3294,1 50829U 22001AC  23066.23993743  .00011801  00000-0  75823-3 0  9995,2 50829  53.2146  60.2521 0000763  56.2822 303.8243 15.08843425 65840,6917.87,95.437,540.263,539.207,0.0
50829.0,STARLINK-3294,PAYLOAD,2023-03-07 16:53:12,15.08842012,0.0001089,53.2137,58.1675,100.6661,259.4454,0.00078653,0.00012253,0.0,0 STARLINK-3294,1 50829U 22001AC  23066.70361973  .00012253  00000-0  78653-3 0  9997,2 50829  53.2137  58.1675 0001089 100.6661 259.4454 15.08842012 65912,6917.874,95.437,540.493,538.986,0.0
50829.0,STARLINK-3294,PAYLOAD,2023-03-08 10:22:27,15.08859446,0.0001262,53.215,54.8976,97.9807,262.1328,0.0013085,0.00020609,0.0,0 STARLINK-3294,1 50829U 22001AC  23067.43225875  .00020609  00000-0  13085-2 0  9999,2 50829  53.2150  54.8976 0001262  97.9807 262.1328 15.08859446 64758,6917.821,95.436,540.559,538.813,0.0
50829.0,STARLINK-3294,PAYLOAD,2023-03-08 23:05:32,15.08867481,0.000133,53.2142,52.5194,97.5184,262.596,0.0018197,0.00028813,0.0,0 STARLINK-3294,1 50829U 22001AC  23067.96218213  .00028813  00000-0  18197-2 0  9999,2 50829  53.2142  52.5194 0001330  97.5184 262.5960 15.08867481 66101,6917.796,95.436,540.581,538.741,0.0
50829.0,STARLINK-3294,PAYLOAD,2023-03-09 05:27:04,15.08859959,0.0001139,53.2148,51.33,105.0669,255.0449,0.001901,0.00030113,0.0,0 STARLINK-3294,1 50829U 22001AC  23068.22714049  .00030113  00000-0  19010-2 0  9998,2 50829  53.2148  51.3300 0001139 105.0669 255.0449 15.08859959 66147,6917.819,95.436,540.472,538.896,0.0
50829.0,STARLINK-3294,PAYLOAD,2023-03-09 08:37:51,15.08868228,0.0001171,53.215,50.7349,108.4258,251.6862,0.0021946,0.00034839,0.0,0 STARLINK-3294,1 50829U 22001AC  23068.35961858  .00034839  00000-0  21946-2 0  9994,2 50829  53.2150  50.7349 0001171 108.4258 251.6862 15.08868228 64893,6917.794,95.436,540.469,538.849,0.0
50829.0,STARLINK-3294,PAYLOAD,2023-03-10 05:17:51,15.08868724,9.98e-05,53.2161,46.8695,91.7328,268.3779,0.0020752,0.00032919,0.0,0 STARLINK-3294,1 50829U 22001AC  23069.22073754  .00032919  00000-0  20752-2 0  9991,2 50829  53.2161  46.8695 0000998  91.7328 268.3779 15.08868724 66292,6917.793,95.436,540.348,538.967,0.0
50829.0,STARLINK-3294,PAYLOAD,2023-03-10 14:50:10,15.08846718,0.0002184,53.2162,45.0849,93.1181,267.0061,7.3806e-05,8.87e-06,0.0,0 STARLINK-3294,1 50829U 22001AC  23069.61817989  .00000887  00000-0  73806-4 0  9999,2 50829  53.2162  45.0849 0002184  93.1181 267.0061 15.08846718 66353,6917.86,95.437,541.236,538.214,0.0
50829.0,STARLINK-3294,PAYLOAD,2023-03-11 05:08:39,15.08833911,0.0001115,53.2166,42.4126,89.4998,270.6122,0.00032555,4.896e-05,0.0,0 STARLINK-3294,1 50829U 22001AC  23070.21434604  .00004896  00000-0  32555-3 0  9995,2 50829  53.2166  42.4126 0001115  89.4998 270.6122 15.08833911 66442,6917.899,95.438,540.535,538.993,0.0
50829.0,STARLINK-3294,PAYLOAD,2023-03-11 09:54:49,15.08852666,0.0001066,53.216,41.5177,73.4155,286.6954,0.0029118,0.00046374,0.0,0 STARLINK-3294,1 50829U 22001AC  23070.41306761  .00046374  00000-0  29118-2 0  9996,2 50829  53.2160  41.5177 0001066  73.4155 286.6954 15.08852666 66476,6917.842,95.437,540.444,538.969,0.0
50829.0,STARLINK-3294,PAYLOAD,2023-03-12 01:48:40,15.0887098,0.0001018,53.2162,38.5436,86.8151,273.2958,0.0021445,0.00034036,0.0,0 STARLINK-3294,1 50829U 22001AC  23071.07546444  .00034036  00000-0  21445-2 0  9990,2 50829  53.2162  38.5436 0001018  86.8151 273.2958 15.08870980 66579,6917.786,95.436,540.355,538.946,0.0
50829.0,STARLINK-3294,PAYLOAD,2023-03-12 08:10:12,15.08895764,0.0001072,53.2164,37.3545,81.8853,278.2261,0.0028761,0.00045853,0.0,0 STARLINK-3294,1 50829U 22001AC  23071.34041750  .00045853  00000-0  28761-2 0  9997,2 50829  53.2164  37.3545 0001072  81.8853 278.2261 15.08895764 65346,6917.71,95.434,540.317,538.833,0.0
50829.0,STARLINK-3294,PAYLOAD,2023-03-13 00:04:03,15.08854554,0.0001431,53.2154,34.3812,98.0425,262.073,0.0019182,0.00030384,0.0,0 STARLINK-3294,1 50829U 22001AC  23072.00282250  .00030384  00000-0  19182-2 0  9993,2 50829  53.2154  34.3812 0001431  98.0425 262.0730 15.08854554 66719,6917.836,95.437,540.691,538.711,0.0
50829.0,STARLINK-3294,PAYLOAD,2023-03-13 06:25:36,15.08858574,0.0001424,53.2159,33.1919,96.7483,263.3671,0.0017659,0.00027942,0.0,0 STARLINK-3294,1 50829U 22001AC  23072.26778088  .00027942  00000-0  17659-2 0  9993,2 50829  53.2159  33.1919 0001424  96.7483 263.3671 15.08858574 66758,6917.824,95.436,540.674,538.704,0.0
